{"type": "FeatureCollection", "features": [ {"type": "Feature", "properties": {"norad_id": 34375, "name": "IRIDIUM 33 DEB", "group": "iridium-33-debris", "lat": -78.93876406728516, "lon": 167.4489194857589, "alt_km": 884.2557656293075, "timestamp": "2025-12-04T09:47:37.904928+00:00", "meta": {"OBJECT_NAME": "IRIDIUM 33 DEB", "OBJECT_ID": "1997-051FT", "EPOCH": "2025-12-03T01:02:45.120192", "MEAN_MOTION": 14.17964565, "ECCENTRICITY": 0.01024686, "INCLINATION": 86.4333, "RA_OF_ASC_NODE": 186.6042, "ARG_OF_PERICENTER": 157.2608, "MEAN_ANOMALY": 1.3107, "EPHEMERIS_TYPE": 0, "CLASSIFICATION_TYPE": "U", "NORAD_CAT_ID": 34375, "ELEMENT_SET_NO": 999, "REV_AT_EPOCH": 86574, "BSTAR": 0.00052219187, "MEAN_MOTION_DOT": 1.144e-05, "MEAN_MOTION_DDOT": 0}, "tle": {"line1": "1 34375U 97051FT  25337.04357778  .00001144  00000+0  52219-3 0  9996", "line2": "2 34375  86.4333 186.6042 0102468 157.2608   1.3107 14.17964565865748"}}, "geometry": {"type": "Point", "coordinates": [167.4489194857589, -78.93876406728516]}}, {"type": "Feature", "properties": {"norad_id": 34376, "name": "IRIDIUM 33 DEB", "group": "iridium-33-debris", "lat": 38.952362039427406, "lon": 13.284951577790364, "alt_km": 699.5152777494377, "timestamp": "2025-12-04T09:47:37.904938+00:00", "meta": {"OBJECT_NAME": "IRIDIUM 33 DEB", "OBJECT_ID": "1997-051FU", "EPOCH": "2025-12-03T20:28:37.375104", "MEAN_MOTION": 14.62362508, "ECCENTRICITY": 0.0026132, "INCLINATION": 86.2992, "RA_OF_ASC_NODE": 10.5349, "ARG_OF_PERICENTER": 197.0147, "MEAN_ANOMALY": 163.0191, "EPHEMERIS_TYPE": 0, "CLASSIFICATION_TYPE": "U", "NORAD_CAT_ID": 34376, "ELEMENT_SET_NO": 999, "REV_AT_EPOCH": 87877, "BSTAR": 0.0029364569, "MEAN_MOTION_DOT": 0.00014948, "MEAN_MOTION_DDOT": 0}, "tle": {"line1": "1 34376U 97051FU  25337.85321036  .00014948  00000+0  29365-2 0  9995", "line2": "2 34376  86.2992  10.5349 0026132 197.0147 163.0191 14.62362508878771"}}, "geometry": {"type": "Point", "coordinates": [13.284951577790364, 38.952362039427406]}}, {"type": "Feature", "properties": {"norad_id": 34486, "name": "IRIDIUM 33 DEB", "group": "iridium-33-debris", "lat": -13.660281820768702, "lon": 14.991149344587798, "alt_km": 594.6211816036757, "timestamp": "2025-12-04T09:47:37.904948+00:00", "meta": {"OBJECT_NAME": "IRIDIUM 33 DEB", "OBJECT_ID": "1997-051GB", "EPOCH": "2025-12-03T10:02:24.254592", "MEAN_MOTION": 14.95105578, "ECCENTRICITY": 0.00129251, "INCLINATION": 86.3945, "RA_OF_ASC_NODE": 16.3253, "ARG_OF_PERICENTER": 143.3156, "MEAN_ANOMALY": 279.4709, "EPHEMERIS_TYPE": 0, "CLASSIFICATION_TYPE": "U", "NORAD_CAT_ID": 34486, "ELEMENT_SET_NO": 999, "REV_AT_EPOCH": 88847, "BSTAR": 0.0028184465, "MEAN_MOTION_DOT": 0.00031064, "MEAN_MOTION_DDOT": 0}, "tle": {"line1": "1 34486U 97051GB  25337.41833628  .00031064  00000+0  28184-2 0  9990", "line2": "2 34486  86.3945  16.3253 0012925 143.3156 279.4709 14.95105578888472"}}, "geometry": {"type": "Point", "coordinates": [14.991149344587798, -13.660281820768702]}}, {"type": "Feature", "properties": {"norad_id": 34487, "name": "IRIDIUM 33 DEB", "group": "iridium-33-debris", "lat": 51.66600552266641, "lon": -168.67331466901132, "alt_km": 722.8912998953438, "timestamp": "2025-12-04T09:47:37.904958+00:00", "meta": {"OBJECT_NAME": "IRIDIUM 33 DEB", "OBJECT_ID": "1997-051GC", "EPOCH": "2025-12-03T10:12:00.081216", "MEAN_MOTION": 14.43196495, "ECCENTRICITY": 0.00319082, "INCLINATION": 86.3443, "RA_OF_ASC_NODE": 16.3873, "ARG_OF_PERICENTER": 157.9365, "MEAN_ANOMALY": 266.0119, "EPHEMERIS_TYPE": 0, "CLASSIFICATION_TYPE": "U", "NORAD_CAT_ID": 34487, "ELEMENT_SET_NO": 999, "REV_AT_EPOCH": 88114, "BSTAR": 0.00029137047, "MEAN_MOTION_DOT": 1.005e-05, "MEAN_MOTION_DDOT": 0}, "tle": {"line1": "1 34487U 97051GC  25337.42500094  .00001005  00000+0  29137-3 0  9992", "line2": "2 34487  86.3443  16.3873 0031908 157.9365 266.0119 14.43196495881144"}}, "geometry": {"type": "Point", "coordinates": [-168.67331466901132, 51.66600552266641]}}, {"type": "Feature", "properties": {"norad_id": 34488, "name": "IRIDIUM 33 DEB", "group": "iridium-33-debris", "lat": 78.30824746543162, "lon": -31.97169911000287, "alt_km": 469.21718552679795, "timestamp": "2025-12-04T09:47:37.904969+00:00", "meta": {"OBJECT_NAME": "IRIDIUM 33 DEB", "OBJECT_ID": "1997-051GD", "EPOCH": "2025-12-03T16:08:28.295808", "MEAN_MOTION": 15.26132536, "ECCENTRICITY": 0.0015614, "INCLINATION": 86.3246, "RA_OF_ASC_NODE": 310.2938, "ARG_OF_PERICENTER": 65.1971, "MEAN_ANOMALY": 295.0897, "EPHEMERIS_TYPE": 0, "CLASSIFICATION_TYPE": "U", "NORAD_CAT_ID": 34488, "ELEMENT_SET_NO": 999, "REV_AT_EPOCH": 89101, "BSTAR": 0.0060111041, "MEAN_MOTION_DOT": 0.00158686, "MEAN_MOTION_DDOT": 0}, "tle": {"line1": "1 34488U 97051GD  25337.67254972  .00158686  00000+0  60111-2 0  9995", "line2": "2 34488  86.3246 310.2938 0015614  65.1971 295.0897 15.26132536891013"}}, "geometry": {"type": "Point", "coordinates": [-31.97169911000287, 78.30824746543162]}}, {"type": "Feature", "properties": {"norad_id": 34492, "name": "IRIDIUM 33 DEB", "group": "iridium-33-debris", "lat": 28.491250150862985, "lon": -20.082703646536498, "alt_km": 879.5739350948497, "timestamp": "2025-12-04T09:47:37.904979+00:00", "meta": {"OBJECT_NAME": "IRIDIUM 33 DEB", "OBJECT_ID": "1997-051GH", "EPOCH": "2025-12-03T10:48:32.344704", "MEAN_MOTION": 14.25280236, "ECCENTRICITY": 0.0190283, "INCLINATION": 86.4711, "RA_OF_ASC_NODE": 338.3846, "ARG_OF_PERICENTER": 268.3385, "MEAN_ANOMALY": 247.4972, "EPHEMERIS_TYPE": 0, "CLASSIFICATION_TYPE": "U", "NORAD_CAT_ID": 34492, "ELEMENT_SET_NO": 999, "REV_AT_EPOCH": 84926, "BSTAR": 0.008581153, "MEAN_MOTION_DOT": 0.00024475, "MEAN_MOTION_DDOT": 0}, "tle": {"line1": "1 34492U 97051GH  25337.45037436  .00024475  00000+0  85812-2 0  9993", "line2": "2 34492  86.4711 338.3846 0190283 268.3385 247.4972 14.25280236849261"}}, "geometry": {"type": "Point", "coordinates": [-20.082703646536498, 28.491250150862985]}}, {"type": "Feature", "properties": {"norad_id": 34497, "name": "IRIDIUM 33 DEB", "group": "iridium-33-debris", "lat": -28.50416840889539, "lon": -122.01405652717251, "alt_km": 859.479224730755, "timestamp": "2025-12-04T09:47:37.904988+00:00", "meta": {"OBJECT_NAME": "IRIDIUM 33 DEB", "OBJECT_ID": "1997-051GN", "EPOCH": "2025-12-03T06:10:51.201984", "MEAN_MOTION": 14.27408211, "ECCENTRICITY": 0.0079856, "INCLINATION": 86.2784, "RA_OF_ASC_NODE": 56.4516, "ARG_OF_PERICENTER": 10.3771, "MEAN_ANOMALY": 49.8757, "EPHEMERIS_TYPE": 0, "CLASSIFICATION_TYPE": "U", "NORAD_CAT_ID": 34497, "ELEMENT_SET_NO": 999, "REV_AT_EPOCH": 86748, "BSTAR": 0.00083815, "MEAN_MOTION_DOT": 2.144e-05, "MEAN_MOTION_DDOT": 0}, "tle": {"line1": "1 34497U 97051GN  25337.25753706  .00002144  00000+0  83815-3 0  9992", "line2": "2 34497  86.2784  56.4516 0079856  10.3771  49.8757 14.27408211867488"}}, "geometry": {"type": "Point", "coordinates": [-122.01405652717251, -28.50416840889539]}}, {"type": "Feature", "properties": {"norad_id": 34508, "name": "IRIDIUM 33 DEB", "group": "iridium-33-debris", "lat": 38.97811962384332, "lon": 109.11867959901923, "alt_km": 805.4381257084724, "timestamp": "2025-12-04T09:47:37.904999+00:00", "meta": {"OBJECT_NAME": "IRIDIUM 33 DEB", "OBJECT_ID": "1997-051GZ", "EPOCH": "2025-12-03T18:34:58.618848", "MEAN_MOTION": 14.38282153, "ECCENTRICITY": 0.0065497, "INCLINATION": 86.3699, "RA_OF_ASC_NODE": 106.4429, "ARG_OF_PERICENTER": 202.0722, "MEAN_ANOMALY": 157.7654, "EPHEMERIS_TYPE": 0, "CLASSIFICATION_TYPE": "U", "NORAD_CAT_ID": 34508, "ELEMENT_SET_NO": 999, "REV_AT_EPOCH": 87180, "BSTAR": 0.002633055, "MEAN_MOTION_DOT": 8.231e-05, "MEAN_MOTION_DDOT": 0}, "tle": {"line1": "1 34508U 97051GZ  25337.77428957  .00008231  00000+0  26331-2 0  9991", "line2": "2 34508  86.3699 106.4429 0065497 202.0722 157.7654 14.38282153871801"}}, "geometry": {"type": "Point", "coordinates": [109.11867959901923, 38.97811962384332]}}, {"type": "Feature", "properties": {"norad_id": 34521, "name": "IRIDIUM 33 DEB", "group": "iridium-33-debris", "lat": -10.269715952546854, "lon": -145.12714382206045, "alt_km": 687.1708054656247, "timestamp": "2025-12-04T09:47:37.905009+00:00", "meta": {"OBJECT_NAME": "IRIDIUM 33 DEB", "OBJECT_ID": "1997-051HN", "EPOCH": "2025-12-03T14:52:24.138048", "MEAN_MOTION": 14.63228778, "ECCENTRICITY": 0.00011177, "INCLINATION": 86.3812, "RA_OF_ASC_NODE": 34.5626, "ARG_OF_PERICENTER": 291.1888, "MEAN_ANOMALY": 68.9204, "EPHEMERIS_TYPE": 0, "CLASSIFICATION_TYPE": "U", "NORAD_CAT_ID": 34521, "ELEMENT_SET_NO": 999, "REV_AT_EPOCH": 88339, "BSTAR": 0.0014436167, "MEAN_MOTION_DOT": 7.457e-05, "MEAN_MOTION_DDOT": 0}, "tle": {"line1": "1 34521U 97051HN  25337.61972382  .00007457  00000+0  14436-2 0  9997", "line2": "2 34521  86.3812  34.5626 0001117 291.1888  68.9204 14.63228778883396"}}, "geometry": {"type": "Point", "coordinates": [-145.12714382206045, -10.269715952546854]}}, {"type": "Feature", "properties": {"norad_id": 34525, "name": "IRIDIUM 33 DEB", "group": "iridium-33-debris", "lat": -80.15289433946667, "lon": -108.1711047670694, "alt_km": 760.3419193954969, "timestamp": "2025-12-04T09:47:37.905037+00:00", "meta": {"OBJECT_NAME": "IRIDIUM 33 DEB", "OBJECT_ID": "1997-051HS", "EPOCH": "2025-12-03T12:55:13.156608", "MEAN_MOTION": 14.42867525, "ECCENTRICITY": 0.00064393, "INCLINATION": 86.3737, "RA_OF_ASC_NODE": 50.7706, "ARG_OF_PERICENTER": 116.2069, "MEAN_ANOMALY": 309.7811, "EPHEMERIS_TYPE": 0, "CLASSIFICATION_TYPE": "U", "NORAD_CAT_ID": 34525, "ELEMENT_SET_NO": 999, "REV_AT_EPOCH": 87955, "BSTAR": 0.00057232393, "MEAN_MOTION_DOT": 1.93e-05, "MEAN_MOTION_DDOT": 0}, "tle": {"line1": "1 34525U 97051HS  25337.53834672  .00001930  00000+0  57232-3 0  9993", "line2": "2 34525  86.3737  50.7706 0006439 116.2069 309.7811 14.42867525879554"}}, "geometry": {"type": "Point", "coordinates": [-108.1711047670694, -80.15289433946667]}}]}